{"type": "FeatureCollection", "features": [ {"type": "Feature", "properties": {"norad_id": 34327, "name": "COSMOS 2251 DEB", "group": "cosmos-2251-debris", "lat": 25.89483209230849, "lon": 2.2235099879829465, "alt_km": 618.6019379128093, "timestamp": "2025-12-03T13:52:09.960808+00:00", "meta": {"OBJECT_NAME": "COSMOS 2251 DEB", "OBJECT_ID": "1993-036NZ", "EPOCH": "2025-12-03T00:49:47.897760", "MEAN_MOTION": 14.8883387, "ECCENTRICITY": 0.00322303, "INCLINATION": 73.994, "RA_OF_ASC_NODE": 191.3214, "ARG_OF_PERICENTER": 9.6895, "MEAN_ANOMALY": 112.1415, "EPHEMERIS_TYPE": 0, "CLASSIFICATION_TYPE": "U", "NORAD_CAT_ID": 34327, "ELEMENT_SET_NO": 999, "REV_AT_EPOCH": 89363, "BSTAR": 0.0016050638, "MEAN_MOTION_DOT": 0.00015182, "MEAN_MOTION_DDOT": 0}, "tle": {"line1": "1 34327U 93036NZ  25337.03458215  .00015182  00000+0  16051-2 0  9999", "line2": "2 34327  73.9940 191.3214 0032230   9.6895 112.1415 14.88833870893635"}}, "geometry": {"type": "Point", "coordinates": [2.2235099879829465, 25.89483209230849]}}, {"type": "Feature", "properties": {"norad_id": 34340, "name": "COSMOS 2251 DEB", "group": "cosmos-2251-debris", "lat": -45.33755186618894, "lon": -53.49864904376314, "alt_km": 1074.1278847010963, "timestamp": "2025-12-03T13:52:09.960819+00:00", "meta": {"OBJECT_NAME": "COSMOS 2251 DEB", "OBJECT_ID": "1993-036PN", "EPOCH": "2025-12-03T07:39:52.430112", "MEAN_MOTION": 13.79523637, "ECCENTRICITY": 0.02817753, "INCLINATION": 74.079, "RA_OF_ASC_NODE": 323.7198, "ARG_OF_PERICENTER": 73.8543, "MEAN_ANOMALY": 37.8482, "EPHEMERIS_TYPE": 0, "CLASSIFICATION_TYPE": "U", "NORAD_CAT_ID": 34340, "ELEMENT_SET_NO": 999, "REV_AT_EPOCH": 84138, "BSTAR": 0.001114437, "MEAN_MOTION_DOT": 1.526e-05, "MEAN_MOTION_DDOT": 0}, "tle": {"line1": "1 34340U 93036PN  25337.31935683  .00001526  00000+0  11144-2 0  9999", "line2": "2 34340  74.0790 323.7198 0281775  73.8543  37.8482 13.79523637841388"}}, "geometry": {"type": "Point", "coordinates": [-53.49864904376314, -45.33755186618894]}}, {"type": "Feature", "properties": {"norad_id": 34343, "name": "COSMOS 2251 DEB", "group": "cosmos-2251-debris", "lat": -47.57735246140899, "lon": 89.0396040385003, "alt_km": 666.3271674358612, "timestamp": "2025-12-03T13:52:09.960829+00:00", "meta": {"OBJECT_NAME": "COSMOS 2251 DEB", "OBJECT_ID": "1993-036PR", "EPOCH": "2025-12-03T07:39:42.973632", "MEAN_MOTION": 14.69151539, "ECCENTRICITY": 0.00225239, "INCLINATION": 74.0194, "RA_OF_ASC_NODE": 107.8161, "ARG_OF_PERICENTER": 26.3671, "MEAN_ANOMALY": 356.3985, "EPHEMERIS_TYPE": 0, "CLASSIFICATION_TYPE": "U", "NORAD_CAT_ID": 34343, "ELEMENT_SET_NO": 999, "REV_AT_EPOCH": 88592, "BSTAR": 0.0021695298, "MEAN_MOTION_DOT": 0.00012805, "MEAN_MOTION_DDOT": 0}, "tle": {"line1": "1 34343U 93036PR  25337.31924738  .00012805  00000+0  21695-2 0  9995", "line2": "2 34343  74.0194 107.8161 0022523  26.3671 356.3985 14.69151539885922"}}, "geometry": {"type": "Point", "coordinates": [89.0396040385003, -47.57735246140899]}}, {"type": "Feature", "properties": {"norad_id": 34344, "name": "COSMOS 2251 DEB", "group": "cosmos-2251-debris", "lat": -2.7008199539041384, "lon": 125.92362593340324, "alt_km": 760.103266947569, "timestamp": "2025-12-03T13:52:09.960840+00:00", "meta": {"OBJECT_NAME": "COSMOS 2251 DEB", "OBJECT_ID": "1993-036PS", "EPOCH": "2025-12-02T12:47:13.899264", "MEAN_MOTION": 14.16298308, "ECCENTRICITY": 0.01551689, "INCLINATION": 73.9766, "RA_OF_ASC_NODE": 128.565, "ARG_OF_PERICENTER": 314.8879, "MEAN_ANOMALY": 114.6708, "EPHEMERIS_TYPE": 0, "CLASSIFICATION_TYPE": "U", "NORAD_CAT_ID": 34344, "ELEMENT_SET_NO": 999, "REV_AT_EPOCH": 85952, "BSTAR": 0.0017796422, "MEAN_MOTION_DOT": 3.944e-05, "MEAN_MOTION_DDOT": 0}, "tle": {"line1": "1 34344U 93036PS  25336.53279976  .00003944  00000+0  17796-2 0  9997", "line2": "2 34344  73.9766 128.5650 0155168 314.8879 114.6708 14.16298308859529"}}, "geometry": {"type": "Point", "coordinates": [125.92362593340324, -2.7008199539041384]}}, {"type": "Feature", "properties": {"norad_id": 34346, "name": "COSMOS 2251 DEB", "group": "cosmos-2251-debris", "lat": -56.826793850760765, "lon": -57.90006925265487, "alt_km": 1031.5746122522432, "timestamp": "2025-12-03T13:52:09.960851+00:00", "meta": {"OBJECT_NAME": "COSMOS 2251 DEB", "OBJECT_ID": "1993-036PU", "EPOCH": "2025-12-03T00:43:22.417248", "MEAN_MOTION": 13.99647112, "ECCENTRICITY": 0.0206812, "INCLINATION": 73.9946, "RA_OF_ASC_NODE": 329.0946, "ARG_OF_PERICENTER": 150.3108, "MEAN_ANOMALY": 268.9951, "EPHEMERIS_TYPE": 0, "CLASSIFICATION_TYPE": "U", "NORAD_CAT_ID": 34346, "ELEMENT_SET_NO": 999, "REV_AT_EPOCH": 85274, "BSTAR": 0.0010372378, "MEAN_MOTION_DOT": 1.8e-05, "MEAN_MOTION_DDOT": 0}, "tle": {"line1": "1 34346U 93036PU  25337.03012057  .00001800  00000+0  10372-2 0  9992", "line2": "2 34346  73.9946 329.0946 0206812 150.3108 268.9951 13.99647112852749"}}, "geometry": {"type": "Point", "coordinates": [-57.90006925265487, -56.826793850760765]}}, {"type": "Feature", "properties": {"norad_id": 34383, "name": "COSMOS 2251 DEB", "group": "cosmos-2251-debris", "lat": 23.447437029374132, "lon": 129.44182283503386, "alt_km": 543.9406094422257, "timestamp": "2025-12-03T13:52:09.960861+00:00", "meta": {"OBJECT_NAME": "COSMOS 2251 DEB", "OBJECT_ID": "1993-036PY", "EPOCH": "2025-12-03T08:58:18.358176", "MEAN_MOTION": 15.07540663, "ECCENTRICITY": 0.00030711, "INCLINATION": 74.021, "RA_OF_ASC_NODE": 317.0009, "ARG_OF_PERICENTER": 35.503, "MEAN_ANOMALY": 92.8624, "EPHEMERIS_TYPE": 0, "CLASSIFICATION_TYPE": "U", "NORAD_CAT_ID": 34383, "ELEMENT_SET_NO": 999, "REV_AT_EPOCH": 88972, "BSTAR": 0.0038957379, "MEAN_MOTION_DOT": 0.00059679, "MEAN_MOTION_DDOT": 0}, "tle": {"line1": "1 34383U 93036PY  25337.37382359  .00059679  00000+0  38957-2 0  9991", "line2": "2 34383  74.0210 317.0009 0003071  35.5030  92.8624 15.07540663889726"}}, "geometry": {"type": "Point", "coordinates": [129.44182283503386, 23.447437029374132]}}, {"type": "Feature", "properties": {"norad_id": 34387, "name": "COSMOS 2251 DEB", "group": "cosmos-2251-debris", "lat": 54.97314498266045, "lon": -106.97914142893445, "alt_km": 740.7545602161699, "timestamp": "2025-12-03T13:52:09.960942+00:00", "meta": {"OBJECT_NAME": "COSMOS 2251 DEB", "OBJECT_ID": "1993-036QC", "EPOCH": "2025-12-02T19:37:56.877888", "MEAN_MOTION": 14.43785146, "ECCENTRICITY": 0.00385289, "INCLINATION": 74.0405, "RA_OF_ASC_NODE": 230.3357, "ARG_OF_PERICENTER": 329.1775, "MEAN_ANOMALY": 100.8975, "EPHEMERIS_TYPE": 0, "CLASSIFICATION_TYPE": "U", "NORAD_CAT_ID": 34387, "ELEMENT_SET_NO": 999, "REV_AT_EPOCH": 88038, "BSTAR": 0.00039323543, "MEAN_MOTION_DOT": 1.323e-05, "MEAN_MOTION_DDOT": 0}, "tle": {"line1": "1 34387U 93036QC  25336.81801942  .00001323  00000+0  39324-3 0  9990", "line2": "2 34387  74.0405 230.3357 0038528 329.1775 100.8975 14.43785146880380"}}, "geometry": {"type": "Point", "coordinates": [-106.97914142893445, 54.97314498266045]}}, {"type": "Feature", "properties": {"norad_id": 34388, "name": "COSMOS 2251 DEB", "group": "cosmos-2251-debris", "lat": -36.79264175943879, "lon": 72.64462275755984, "alt_km": 730.5582650627548, "timestamp": "2025-12-03T13:52:09.960955+00:00", "meta": {"OBJECT_NAME": "COSMOS 2251 DEB", "OBJECT_ID": "1993-036QD", "EPOCH": "2025-12-03T05:09:56.791296", "MEAN_MOTION": 14.49279147, "ECCENTRICITY": 0.00143296, "INCLINATION": 74.0401, "RA_OF_ASC_NODE": 240.9658, "ARG_OF_PERICENTER": 289.5696, "MEAN_ANOMALY": 197.6854, "EPHEMERIS_TYPE": 0, "CLASSIFICATION_TYPE": "U", "NORAD_CAT_ID": 34388, "ELEMENT_SET_NO": 999, "REV_AT_EPOCH": 88017, "BSTAR": 0.0010944307, "MEAN_MOTION_DOT": 4.155e-05, "MEAN_MOTION_DDOT": 0}, "tle": {"line1": "1 34388U 93036QD  25337.21524064  .00004155  00000+0  10944-2 0  9995", "line2": "2 34388  74.0401 240.9658 0014329 289.5696 197.6854 14.49279147880174"}}, "geometry": {"type": "Point", "coordinates": [72.64462275755984, -36.79264175943879]}}, {"type": "Feature", "properties": {"norad_id": 34389, "name": "COSMOS 2251 DEB", "group": "cosmos-2251-debris", "lat": 39.22225711192877, "lon": 73.2743162914191, "alt_km": 759.6992649468666, "timestamp": "2025-12-03T13:52:09.960966+00:00", "meta": {"OBJECT_NAME": "COSMOS 2251 DEB", "OBJECT_ID": "1993-036QE", "EPOCH": "2025-12-03T05:35:36.167136", "MEAN_MOTION": 14.41490102, "ECCENTRICITY": 0.00284402, "INCLINATION": 74.0187, "RA_OF_ASC_NODE": 267.441, "ARG_OF_PERICENTER": 21.5357, "MEAN_ANOMALY": 128.2079, "EPHEMERIS_TYPE": 0, "CLASSIFICATION_TYPE": "U", "NORAD_CAT_ID": 34389, "ELEMENT_SET_NO": 999, "REV_AT_EPOCH": 87875, "BSTAR": 0.00063198969, "MEAN_MOTION_DOT": 2.036e-05, "MEAN_MOTION_DDOT": 0}, "tle": {"line1": "1 34389U 93036QE  25337.23305749  .00002036  00000+0  63199-3 0  9992", "line2": "2 34389  74.0187 267.4410 0028440  21.5357 128.2079 14.41490102878751"}}, "geometry": {"type": "Point", "coordinates": [73.2743162914191, 39.22225711192877]}}, {"type": "Feature", "properties": {"norad_id": 34396, "name": "COSMOS 2251 DEB", "group": "cosmos-2251-debris", "lat": 60.715291731341054, "lon": 172.63341815204086, "alt_km": 644.6656465987307, "timestamp": "2025-12-03T13:52:09.960980+00:00", "meta": {"OBJECT_NAME": "COSMOS 2251 DEB", "OBJECT_ID": "1993-036QM", "EPOCH": "2025-12-02T21:50:13.815168", "MEAN_MOTION": 14.73961737, "ECCENTRICITY": 0.00075689, "INCLINATION": 74.0273, "RA_OF_ASC_NODE": 143.2253, "ARG_OF_PERICENTER": 185.2652, "MEAN_ANOMALY": 296.7903, "EPHEMERIS_TYPE": 0, "CLASSIFICATION_TYPE": "U", "NORAD_CAT_ID": 34396, "ELEMENT_SET_NO": 999, "REV_AT_EPOCH": 88201, "BSTAR": 0.0028541453, "MEAN_MOTION_DOT": 0.00018775, "MEAN_MOTION_DDOT": 0}, "tle": {"line1": "1 34396U 93036QM  25336.90988212  .00018775  00000+0  28541-2 0  9993", "line2": "2 34396  74.0273 143.2253 0007568 185.2652 296.7903 14.73961737882018"}}, "geometry": {"type": "Point", "coordinates": [172.63341815204086, 60.715291731341054]}}]}